[{"OBJECT_NAME":"YAOGAN-43 01F","OBJECT_ID":"2024-148F","EPOCH":"2026-03-10T00:23:08.877408","MEAN_MOTION":15.29824616,"ECCENTRICITY":0.00057048,"INCLINATION":34.9925,"RA_OF_ASC_NODE":59.8891,"ARG_OF_PERICENTER":18.4862,"MEAN_ANOMALY":341.6062,"EPHEMERIS_TYPE":0,"CLASSIFICATION_TYPE":"U","NORAD_CAT_ID":60463,"ELEMENT_SET_NO":999,"REV_AT_EPOCH":8707,"BSTAR":0.00058388219,"MEAN_MOTION_DOT":0.00017308,"MEAN_MOTION_DDOT":0},{"OBJECT_NAME":"STARLINK-32668","OBJECT_ID":"2024-229W","EPOCH":"2026-03-08T14:37:55.700544","MEAN_MOTION":15.27621238,"ECCENTRICITY":0.00022466,"INCLINATION":43.0037,"RA_OF_ASC_NODE":273.5771,"ARG_OF_PERICENTER":259.5738,"MEAN_ANOMALY":100.4861,"EPHEMERIS_TYPE":0,"CLASSIFICATION_TYPE":"U","NORAD_CAT_ID":62212,"ELEMENT_SET_NO":999,"REV_AT_EPOCH":7043,"BSTAR":0.001200068,"MEAN_MOTION_DOT":0.00032951,"MEAN_MOTION_DDOT":0}]
